*******************************************************************************
JPL/HORIZONS                     (2020 XF3)                2020-Dec-13 21:53:54
Rec #:50491830 (+COV) Soln.date: 2020-Dec-11_09:12:02        # obs: 19 (2 days)
 
IAU76/J2000 helio. ecliptic osc. elements (au, days, deg., period=Julian yrs):
 
  EPOCH=  2459193.5 ! 2020-Dec-10.00 (TDB)         Residual RMS= .56576
   EC= .2937155377272667   QR= 1.029451223958528   TP= 2459205.2067148308
   OM= 87.32869003650104   W=  3.312430740185646   IN= 12.59047920408036
   A= 1.457558928375523    MA= 353.4430793186802   ADIST= 1.885666632792519
   PER= 1.75974            N= .560099105           ANGMOM= .019851975
   DAN= 1.02984            DDN= 1.88436            L= 90.5616378
   B= .7216641             MOID= .0458512          TP= 2020-Dec-21.7067148308
 
Asteroid physical parameters (km, seconds, rotational period in hours):
   GM= n.a.                RAD= n.a.               ROTPER= n.a.
   H= 25.085               G= .150                 B-V= n.a.
                           ALBEDO= n.a.            STYP= n.a.
 
ASTEROID comments: 
1: soln ref.= JPL#1, OCC=8
2: source=ORB
*******************************************************************************
 
 
*******************************************************************************
Ephemeris / WWW_USER Sun Dec 13 21:53:54 2020 Pasadena, USA      / Horizons    
*******************************************************************************
Target body name: (2020 XF3)                      {source: JPL#1}
Center body name: Solar System Barycenter (0)     {source: DE431}
Center-site name: BODYCENTRIC
*******************************************************************************
Start time      : A.D. 2014-Jan-01 00:00:00.0000 UT      
Stop  time      : A.D. 2023-Jan-01 00:00:00.0000 UT      
Step-size       : 1440 minutes
*******************************************************************************
Target pole/equ : No model available
Target radii    : (unavailable)                                                
Center geodetic : 0.00000000,0.00000000,0.0000000 {E-lon(deg),Lat(deg),Alt(km)}
Center cylindric: 0.00000000,0.00000000,0.0000000 {E-lon(deg),Dxy(km),Dz(km)}
Center pole/equ : ICRF
Center radii    : (undefined)                                                  
Target primary  : Sun
Vis. interferer : None
Rel. light bend : Sun                             {source: DE431}
Rel. lght bnd GM: 1.3271E+11 km^3/s^2                                          
Small-body perts: Yes                             {source: SB431-N16}
Atmos refraction: NO (AIRLESS)
RA format       : DEG
Time format     : CAL 
EOP file        : eop.201211.p210304                                           
EOP coverage    : DATA-BASED 1962-JAN-20 TO 2020-DEC-11. PREDICTS-> 2021-MAR-03
Units conversion: 1 au= 149597870.700 km, c= 299792.458 km/s, 1 day= 86400.0 s 
Table cut-offs 1: Elevation (-90.0deg=NO ),Airmass     n.a.    , Daylight (NO )
Table cut-offs 2: Solar elongation (  0.0,180.0=NO ),Local Hour Angle( 0.0=NO )
Table cut-offs 3: RA/DEC angular rate (     0.0=NO )                           
*******************************************************************************
Initial IAU76/J2000 heliocentric ecliptic osculating elements (au, days, deg.):
  EPOCH=  2459193.5 ! 2020-Dec-10.00 (TDB)         Residual RMS= .56576        
   EC= .2937155377272667   QR= 1.029451223958528   TP= 2459205.2067148308      
   OM= 87.32869003650104   W=  3.312430740185646   IN= 12.59047920408036       
  Equivalent ICRF heliocentric equatorial cartesian coordinates (au, au/d):
   X= 2.090653380561769E-01  Y= 9.438248954026317E-01  Z= 3.698525998486296E-01
  VX=-1.850615833995745E-02 VY= 1.095570288754375E-03 VZ= 5.009246950770500E-03
Asteroid physical parameters (km, seconds, rotational period in hours):        
   GM= n.a.                RAD= n.a.               ROTPER= n.a.                
   H= 25.085               G= .150                 B-V= n.a.                   
                           ALBEDO= n.a.            STYP= n.a.                  
*******************************************************************************
 Date__(UT)__HR:MN                delta     GlxLon     GlxLat
*************************************************************
$$SOE
 2021-Apr-24 00:00     2.1416387151E+08 315.102406  68.062047
 2021-Apr-25 00:00     2.1479183598E+08 316.271077  67.721033
 2021-Apr-26 00:00     2.1541830181E+08 317.399311  67.373966
 2021-Apr-27 00:00     2.1604321978E+08 318.488554  67.021326
 2021-Apr-28 00:00     2.1666654168E+08 319.540250  66.663565
 2021-Apr-29 00:00     2.1728822038E+08 320.555829  66.301105
 2021-Apr-30 00:00     2.1790820970E+08 321.536701  65.934343
 2021-May-01 00:00     2.1852646450E+08 322.484249  65.563650
 2021-May-02 00:00     2.1914294056E+08 323.399822  65.189373
 2021-May-03 00:00     2.1975759465E+08 324.284731  64.811836
 2021-May-04 00:00     2.2037038446E+08 325.140247  64.431341
 2021-May-05 00:00     2.2098126857E+08 325.967600  64.048172
 2021-May-06 00:00     2.2159020650E+08 326.767974  63.662592
 2021-May-07 00:00     2.2219715861E+08 327.542510  63.274847
 2021-May-08 00:00     2.2280208615E+08 328.292303  62.885167
 2021-May-09 00:00     2.2340495118E+08 329.018404  62.493764
 2021-May-10 00:00     2.2400571663E+08 329.721818  62.100839
 2021-May-11 00:00     2.2460434620E+08 330.403511  61.706576
 2021-May-12 00:00     2.2520080442E+08 331.064401  61.311149
 2021-May-13 00:00     2.2579505657E+08 331.705370  60.914717
 2021-May-14 00:00     2.2638706871E+08 332.327257  60.517432
 2021-May-15 00:00     2.2697680763E+08 332.930864  60.119432
 2021-May-16 00:00     2.2756424088E+08 333.516954  59.720848
 2021-May-17 00:00     2.2814933670E+08 334.086257  59.321799
 2021-May-18 00:00     2.2873206404E+08 334.639467  58.922399
 2021-May-19 00:00     2.2931239255E+08 335.177247  58.522751
 2021-May-20 00:00     2.2989029253E+08 335.700227  58.122954
 2021-May-21 00:00     2.3046573496E+08 336.209009  57.723096
 2021-May-22 00:00     2.3103869145E+08 336.704164  57.323263
 2021-May-23 00:00     2.3160913427E+08 337.186240  56.923533
 2021-May-24 00:00     2.3217703627E+08 337.655756  56.523977
 2021-May-25 00:00     2.3274237092E+08 338.113207  56.124662
 2021-May-26 00:00     2.3330511231E+08 338.559066  55.725653
 2021-May-27 00:00     2.3386523508E+08 338.993784  55.327006
 2021-May-28 00:00     2.3442271445E+08 339.417789  54.928774
 2021-May-29 00:00     2.3497752618E+08 339.831492  54.531009
 2021-May-30 00:00     2.3552964661E+08 340.235282  54.133755
 2021-May-31 00:00     2.3607905258E+08 340.629532  53.737056
 2021-Jun-01 00:00     2.3662572146E+08 341.014598  53.340951
 2021-Jun-02 00:00     2.3716963114E+08 341.390819  52.945476
 2021-Jun-03 00:00     2.3771076001E+08 341.758519  52.550665
 2021-Jun-04 00:00     2.3824908693E+08 342.118009  52.156548
 2021-Jun-05 00:00     2.3878459125E+08 342.469582  51.763154
 2021-Jun-06 00:00     2.3931725280E+08 342.813523  51.370510
 2021-Jun-07 00:00     2.3984705185E+08 343.150101  50.978638
 2021-Jun-08 00:00     2.4037396913E+08 343.479575  50.587561
 2021-Jun-09 00:00     2.4089798580E+08 343.802191  50.197299
 2021-Jun-10 00:00     2.4141908345E+08 344.118187  49.807870
 2021-Jun-11 00:00     2.4193724410E+08 344.427788  49.419291
 2021-Jun-12 00:00     2.4245245016E+08 344.731211  49.031576
 2021-Jun-13 00:00     2.4296468447E+08 345.028665  48.644739
 2021-Jun-14 00:00     2.4347393024E+08 345.320347  48.258792
 2021-Jun-15 00:00     2.4398017106E+08 345.606448  47.873746
 2021-Jun-16 00:00     2.4448339093E+08 345.887152  47.489610
 2021-Jun-17 00:00     2.4498357418E+08 346.162633  47.106393
 2021-Jun-18 00:00     2.4548070552E+08 346.433060  46.724102
 2021-Jun-19 00:00     2.4597477000E+08 346.698595  46.342744
 2021-Jun-20 00:00     2.4646575303E+08 346.959391  45.962324
 2021-Jun-21 00:00     2.4695364035E+08 347.215598  45.582846
 2021-Jun-22 00:00     2.4743841802E+08 347.467359  45.204314
 2021-Jun-23 00:00     2.4792007243E+08 347.714812  44.826731
 2021-Jun-24 00:00     2.4839859028E+08 347.958087  44.450099
 2021-Jun-25 00:00     2.4887395859E+08 348.197314  44.074420
 2021-Jun-26 00:00     2.4934616466E+08 348.432613  43.699694
 2021-Jun-27 00:00     2.4981519612E+08 348.664102  43.325922
 2021-Jun-28 00:00     2.5028104084E+08 348.891894  42.953104
 2021-Jun-29 00:00     2.5074368701E+08 349.116099  42.581237
 2021-Jun-30 00:00     2.5120312309E+08 349.336821  42.210322
 2021-Jul-01 00:00     2.5165933778E+08 349.554161  41.840356
 2021-Jul-02 00:00     2.5211232009E+08 349.768217  41.471337
 2021-Jul-03 00:00     2.5256205925E+08 349.979083  41.103261
 2021-Jul-04 00:00     2.5300854475E+08 350.186850  40.736127
 2021-Jul-05 00:00     2.5345176633E+08 350.391604  40.369930
 2021-Jul-06 00:00     2.5389171399E+08 350.593430  40.004667
 2021-Jul-07 00:00     2.5432837793E+08 350.792410  39.640334
 2021-Jul-08 00:00     2.5476174860E+08 350.988622  39.276925
 2021-Jul-09 00:00     2.5519181668E+08 351.182142  38.914437
 2021-Jul-10 00:00     2.5561857305E+08 351.373043  38.552864
 2021-Jul-11 00:00     2.5604200883E+08 351.561396  38.192201
 2021-Jul-12 00:00     2.5646211533E+08 351.747270  37.832443
 2021-Jul-13 00:00     2.5687888407E+08 351.930731  37.473584
 2021-Jul-14 00:00     2.5729230678E+08 352.111843  37.115617
 2021-Jul-15 00:00     2.5770237538E+08 352.290667  36.758538
 2021-Jul-16 00:00     2.5810908198E+08 352.467265  36.402339
 2021-Jul-17 00:00     2.5851241888E+08 352.641693  36.047014
 2021-Jul-18 00:00     2.5891237857E+08 352.814009  35.692556
 2021-Jul-19 00:00     2.5930895370E+08 352.984266  35.338960
 2021-Jul-20 00:00     2.5970213713E+08 353.152517  34.986218
 2021-Jul-21 00:00     2.6009192185E+08 353.318814  34.634322
